NORAD_CAT_ID,OBJECT_NAME,OBJECT_TYPE,EPOCH,MEAN_MOTION,ECCENTRICITY,INCLINATION,RA_OF_ASC_NODE,ARG_OF_PERICENTER,MEAN_ANOMALY,BSTAR,MEAN_MOTION_DOT,MEAN_MOTION_DDOT,TLE_LINE0,TLE_LINE1,TLE_LINE2,SEMIMAJOR_AXIS,PERIOD,APOGEE,PERIGEE,DECAYED
55678.0,STARLINK-5314,PAYLOAD,2023-04-14 12:55:37,15.69917785,0.0003013,69.999,353.1216,287.9037,72.183,6.2918e-07,-1.37e-06,0.0,0 STARLINK-5314,1 55678U 23021BC  23104.53862590 -.00000137  00000-0  62918-6 0  9991,2 55678  69.9990 353.1216 0003013 287.9037  72.1830 15.69917785  9603,6737.269,91.725,361.164,357.104,0.0
55678.0,STARLINK-5314,PAYLOAD,2023-04-15 02:41:22,15.69932628,0.0003205,69.9963,351.5136,262.2818,97.8014,2.9819e-07,-1.77e-06,0.0,0 STARLINK-5314,1 55678U 23021BC  23105.11206556 -.00000177  00000-0  29819-6 0  9997,2 55678  69.9963 351.5136 0003205 262.2818  97.8014 15.69932628  9692,6737.227,91.724,361.251,356.932,0.0
55678.0,STARLINK-5314,PAYLOAD,2023-04-15 19:30:39,15.69921164,0.0002763,69.9999,349.5404,272.8004,87.2876,2.1924e-06,5.1e-07,0.0,0 STARLINK-5314,1 55678U 23021BC  23105.81295915  .00000051  00000-0  21924-5 0  9999,2 55678  69.9999 349.5404 0002763 272.8004  87.2876 15.69921164  9498,6737.26,91.724,360.986,357.263,0.0
55678.0,STARLINK-5314,PAYLOAD,2023-04-16 01:37:39,15.69929853,0.0002892,69.9982,348.8252,263.209,96.8777,1.4846e-05,1.573e-05,0.0,0 STARLINK-5314,1 55678U 23021BC  23106.06781739  .00001573  00000-0  14846-4 0  9995,2 55678  69.9982 348.8252 0002892 263.2090  96.8777 15.69929853  9539,6737.235,91.724,361.048,357.151,0.0
55678.0,STARLINK-5314,PAYLOAD,2023-04-16 13:51:41,15.69914935,0.0002624,70.0002,347.3908,283.069,77.0212,4.3096e-06,3.06e-06,0.0,0 STARLINK-5314,1 55678U 23021BC  23106.57756624  .00000306  00000-0  43096-5 0  9999,2 55678  70.0002 347.3908 0002624 283.0690  77.0212 15.69914935  9929,6737.277,91.725,360.91,357.375,0.0
55678.0,STARLINK-5314,PAYLOAD,2023-04-16 18:26:55,15.69933476,0.0003068,69.9992,346.8544,242.4998,117.5886,7.8648e-06,7.33e-06,0.0,0 STARLINK-5314,1 55678U 23021BC  23106.76870093  .00000733  00000-0  78648-5 0  9992,2 55678  69.9992 346.8544 0003068 242.4998 117.5886 15.69933476  9958,6737.224,91.724,361.156,357.022,0.0
55678.0,STARLINK-5314,PAYLOAD,2023-04-17 02:05:41,15.69930842,0.0003334,69.9975,345.9593,271.0927,88.9887,1.094e-05,1.103e-05,0.0,0 STARLINK-5314,1 55678U 23021BC  23107.08728514  .00001103  00000-0  10940-4 0  9990,2 55678  69.9975 345.9593 0003334 271.0927  88.9887 15.69930842 10003,6737.232,91.724,361.343,356.851,0.0
55678.0,STARLINK-5314,PAYLOAD,2023-04-17 18:54:58,15.69928927,0.0003489,69.9975,343.9869,268.7615,91.3181,4.4333e-06,3.2e-06,0.0,0 STARLINK-5314,1 55678U 23021BC  23107.78817245  .00000320  00000-0  44333-5 0  9991,2 55678  69.9975 343.9869 0003489 268.7615  91.3181 15.69928927  9807,6737.237,91.724,361.453,356.752,0.0
55678.0,STARLINK-5314,PAYLOAD,2023-04-17 21:58:28,15.69932144,0.0003483,69.9972,343.6288,267.1784,92.9013,7.3965e-06,6.77e-06,0.0,0 STARLINK-5314,1 55678U 23021BC  23107.91560289  .00000677  00000-0  73965-5 0  9997,2 55678  69.9972 343.6288 0003483 267.1784  92.9013 15.69932144 10135,6737.228,91.724,361.44,356.747,0.0
55678.0,STARLINK-5314,PAYLOAD,2023-04-18 01:01:58,15.69932607,0.0003517,69.9972,343.2706,267.3413,92.738,8.7614e-06,8.41e-06,0.0,0 STARLINK-5314,1 55678U 23021BC  23108.04303581  .00000841  00000-0  87614-5 0  9991,2 55678  69.9972 343.2706 0003517 267.3413  92.7380 15.69932607 10156,6737.227,91.724,361.461,356.722,0.0
55678.0,STARLINK-5314,PAYLOAD,2023-04-18 17:51:15,15.69927724,0.0003332,69.9983,341.302,267.2867,92.7948,1.5057e-06,-3.2e-07,0.0,0 STARLINK-5314,1 55678U 23021BC  23108.74392828 -.00000032  00000-0  15057-5 0  9995,2 55678  69.9983 341.3020 0003332 267.2867  92.7948 15.69927724 10269,6737.241,91.724,361.351,356.861,0.0
55678.0,STARLINK-5314,PAYLOAD,2023-04-19 01:30:00,15.6993381,0.0002895,69.9972,340.4052,275.7715,84.315,1.1482e-05,1.169e-05,0.0,0 STARLINK-5314,1 55678U 23021BC  23109.06250663  .00001169  00000-0  11482-4 0  9999,2 55678  69.9972 340.4052 0002895 275.7715  84.3150 15.69933810 10008,6737.223,91.724,361.039,357.138,0.0
55678.0,STARLINK-5314,PAYLOAD,2023-04-19 21:22:47,15.6992634,0.0003715,69.9988,338.0747,264.5141,95.5631,6.7786e-06,6.02e-06,0.0,0 STARLINK-5314,1 55678U 23021BC  23109.89082568  .00000602  00000-0  67786-5 0  9997,2 55678  69.9988 338.0747 0003715 264.5141  95.5631 15.69926340 10446,6737.245,91.724,361.613,356.607,0.0
55678.0,STARLINK-5314,PAYLOAD,2023-04-20 01:58:02,15.69938384,0.0003047,69.9977,337.5388,264.2996,95.7852,5.8914e-06,4.96e-06,0.0,0 STARLINK-5314,1 55678U 23021BC  23110.08196955  .00000496  00000-0  58914-5 0  9990,2 55678  69.9977 337.5388 0003047 264.2996  95.7852 15.69938384 10473,6737.21,91.723,361.128,357.022,0.0
55678.0,STARLINK-5314,PAYLOAD,2023-04-20 21:50:49,15.69925762,0.0003817,69.9995,335.2108,266.6239,93.452,7.7846e-06,7.23e-06,0.0,0 STARLINK-5314,1 55678U 23021BC  23110.91029754  .00000723  00000-0  77846-5 0  9992,2 55678  69.9995 335.2108 0003817 266.6239  93.4520 15.69925762 10607,6737.246,91.724,361.683,356.54,0.0
55678.0,STARLINK-5314,PAYLOAD,2023-04-21 08:33:08,15.69872266,0.0002121,69.9996,333.957,292.7115,67.3857,-5.5388e-05,-6.851e-05,0.0,0 STARLINK-5314,1 55678U 23021BC  23111.35635154 -.00006851  00000-0 -55388-4 0  9994,2 55678  69.9996 333.9570 0002121 292.7115  67.3857 15.69872266 10676,6737.399,91.727,360.693,357.835,0.0
55678.0,STARLINK-5314,PAYLOAD,2023-04-22 13:36:22,15.69954483,0.000363,69.9993,330.5536,265.3108,94.7673,0.00010492,0.00012438,0.0,0 STARLINK-5314,1 55678U 23021BC  23112.56692500  .00012438  00000-0  10492-3 0  9998,2 55678  69.9993 330.5536 0003630 265.3108  94.7673 15.69954483 10551,6737.164,91.722,361.475,356.584,0.0
55678.0,STARLINK-5314,PAYLOAD,2023-04-22 21:15:08,15.69925543,0.000611,69.9987,329.6563,271.3342,88.7154,1.7092e-05,1.843e-05,0.0,0 STARLINK-5314,1 55678U 23021BC  23112.88551925  .00001843  00000-0  17092-4 0  9990,2 55678  69.9987 329.6563 0006110 271.3342  88.7154 15.69925543 10918,6737.247,91.724,363.228,354.996,0.0
55678.0,STARLINK-5314,PAYLOAD,2023-04-23 14:04:25,15.6992256,0.0003342,69.9984,327.6864,267.9116,92.1697,3.5797e-05,4.093e-05,0.0,0 STARLINK-5314,1 55678U 23021BC  23113.58640558  .00004093  00000-0  35797-4 0  9991,2 55678  69.9984 327.6864 0003342 267.9116  92.1697 15.69922560 11021,6737.256,91.724,361.372,356.869,0.0
55678.0,STARLINK-5314,PAYLOAD,2023-04-23 23:14:55,15.69944972,0.0003249,69.9989,326.6119,266.2386,93.8438,3.3701e-06,1.93e-06,0.0,0 STARLINK-5314,1 55678U 23021BC  23113.96869270  .00000193  00000-0  33701-5 0  9998,2 55678  69.9989 326.6119 0003249 266.2386  93.8438 15.69944972 10778,6737.191,91.723,361.245,356.868,0.0
55678.0,STARLINK-5314,PAYLOAD,2023-04-25 13:28:46,15.69872322,0.0003629,69.9984,322.1304,271.8958,88.1822,-8.3506e-05,-0.00010221,0.0,0 STARLINK-5314,1 55678U 23021BC  23115.56164735 -.00010221  00000-0 -83506-4 0  9992,2 55678  69.9984 322.1304 0003629 271.8958  88.1822 15.69872322 11335,6737.399,91.727,361.709,356.819,0.0
55678.0,STARLINK-5314,PAYLOAD,2023-04-25 22:39:16,15.69912655,0.0003069,69.9988,321.0583,268.5798,91.5047,1.0092e-05,1e-05,0.0,0 STARLINK-5314,1 55678U 23021BC  23115.94394070  .00001000  00000-0  10092-4 0  9994,2 55678  69.9988 321.0583 0003069 268.5798  91.5047 15.69912655 11396,6737.284,91.725,361.217,357.081,0.0
55678.0,STARLINK-5314,PAYLOAD,2023-04-26 20:03:46,15.69932276,0.0005627,70.0066,318.5538,271.382,88.6731,0.0001161,0.00013782,0.0,0 STARLINK-5314,1 55678U 23021BC  23116.83595320  .00013782  00000-0  11610-3 0  9990,2 55678  70.0066 318.5538 0005627 271.3820  88.6731 15.69932276 11531,6737.228,91.724,362.884,355.302,0.0
55678.0,STARLINK-5314,PAYLOAD,2023-04-27 12:53:02,15.69927113,0.0003829,69.9978,316.5788,269.7819,90.2938,-3.4771e-06,-6.31e-06,0.0,0 STARLINK-5314,1 55678U 23021BC  23117.53683271 -.00000631  00000-0 -34771-5 0  9997,2 55678  69.9978 316.5788 0003829 269.7819  90.2938 15.69927113 11640,6737.243,91.724,361.687,356.528,0.0
55678.0,STARLINK-5314,PAYLOAD,2023-04-28 11:49:20,15.69919772,0.0003382,69.9965,313.8897,272.0228,88.058,1.2396e-07,-1.98e-06,0.0,0 STARLINK-5314,1 55678U 23021BC  23118.49259446 -.00000198  00000-0  12396-6 0  9993,2 55678  69.9965 313.8897 0003382 272.0228  88.0580 15.69919772 11484,6737.264,91.724,361.407,356.85,0.0
55678.0,STARLINK-5314,PAYLOAD,2023-04-28 20:59:50,15.6992345,0.0002882,69.9982,312.8189,270.5382,89.5483,1.724e-05,1.861e-05,0.0,0 STARLINK-5314,1 55678U 23021BC  23118.87488680  .00001861  00000-0  17240-4 0  9997,2 55678  69.9982 312.8189 0002882 270.5382  89.5483 15.69923450 11547,6737.253,91.724,361.06,357.176,0.0
55678.0,STARLINK-5314,PAYLOAD,2023-04-29 13:49:06,15.69921104,0.0003113,69.9988,310.8468,269.6227,90.4612,1.1539e-05,1.175e-05,0.0,0 STARLINK-5314,1 55678U 23021BC  23119.57577331  .00001175  00000-0  11539-4 0  9990,2 55678  69.9988 310.8468 0003113 269.6227  90.4612 15.69921104 11961,6737.26,91.724,361.222,357.027,0.0
55678.0,STARLINK-5314,PAYLOAD,2023-04-29 22:59:37,15.69930423,0.0003032,69.9982,309.7707,263.1979,96.8872,2.723e-05,3.063e-05,0.0,0 STARLINK-5314,1 55678U 23021BC  23119.95806881  .00003063  00000-0  27230-4 0  9990,2 55678  69.9982 309.7707 0003032 263.1979  96.8872 15.69930423 11716,6737.233,91.724,361.141,357.055,0.0
55678.0,STARLINK-5314,PAYLOAD,2023-04-30 14:17:08,15.69919907,0.0003426,69.9976,307.9784,266.5651,93.5153,-4.3912e-07,-2.66e-06,0.0,0 STARLINK-5314,1 55678U 23021BC  23120.59524175 -.00000266  00000-0 -43912-6 0  9996,2 55678  69.9976 307.9784 0003426 266.5651  93.5153 15.69919907 11816,6737.263,91.724,361.436,356.82,0.0
55678.0,STARLINK-5314,PAYLOAD,2023-05-01 13:13:25,15.69926198,0.0003384,69.9966,305.2903,263.1202,96.9609,1.0665e-05,1.07e-05,0.0,0 STARLINK-5314,1 55678U 23021BC  23121.55099080  .00001070  00000-0  10665-4 0  9994,2 55678  69.9966 305.2903 0003384 263.1202  96.9609 15.69926198 12271,6737.245,91.724,361.39,356.83,0.0
